[{"OBJECT_NAME":"ICEYE-X31","OBJECT_ID":"2023-174AJ","EPOCH":"2026-03-09T23:06:20.433600","MEAN_MOTION":15.30950809,"ECCENTRICITY":0.00015021,"INCLINATION":97.3851,"RA_OF_ASC_NODE":144.9524,"ARG_OF_PERICENTER":332.6589,"MEAN_ANOMALY":27.4572,"EPHEMERIS_TYPE":0,"CLASSIFICATION_TYPE":"U","NORAD_CAT_ID":58288,"ELEMENT_SET_NO":999,"REV_AT_EPOCH":12955,"BSTAR":0.00066288467,"MEAN_MOTION_DOT":0.00019777,"MEAN_MOTION_DDOT":0},{"OBJECT_NAME":"STARLINK-35919","OBJECT_ID":"2025-283L","EPOCH":"2026-03-09T04:03:30.667680","MEAN_MOTION":15.30185332,"ECCENTRICITY":0.00012465,"INCLINATION":53.1608,"RA_OF_ASC_NODE":26.6427,"ARG_OF_PERICENTER":77.0606,"MEAN_ANOMALY":283.0534,"EPHEMERIS_TYPE":0,"CLASSIFICATION_TYPE":"U","NORAD_CAT_ID":66888,"ELEMENT_SET_NO":999,"REV_AT_EPOCH":1576,"BSTAR":0.001416911,"MEAN_MOTION_DOT":0.00041823,"MEAN_MOTION_DDOT":0}]
